OBJECT_NAME,OBJECT_ID,EPOCH,MEAN_MOTION,ECCENTRICITY,INCLINATION,RA_OF_ASC_NODE,ARG_OF_PERICENTER,MEAN_ANOMALY,EPHEMERIS_TYPE,CLASSIFICATION_TYPE,NORAD_CAT_ID,ELEMENT_SET_NO,REV_AT_EPOCH,BSTAR,MEAN_MOTION_DOT,MEAN_MOTION_DDOT
STARLINK-32538,2024-225H,2026-06-15T00:55:03.477216,14.98316987,.00031704,70.0019,279.1346,269.7173,90.3623,0,U,62170,999,8445,.52753614E-3,.6205E-4,0
STARLINK-32257,2024-225J,2026-06-14T15:48:15.836832,14.98334490,.00032292,70.0015,279.8182,270.2004,89.8785,0,U,62171,999,8440,.23507187E-3,.2713E-4,0
STARLINK-32407,2024-225K,2026-06-14T14:36:10.219104,14.98335331,.00032424,70.0018,280.0384,269.3699,90.7089,0,U,62172,999,8439,.2443873E-3,.2825E-4,0
STARLINK-32575,2024-225L,2026-06-15T07:40:10.982784,14.98332493,.00038803,70.0017,268.1029,270.6324,89.4391,0,U,62173,999,8475,.90012238E-4,.981E-5,0
STARLINK-32552,2024-225M,2026-06-15T01:31:04.719648,14.98336362,.00033944,70.0013,278.8231,267.5955,92.4816,0,U,62174,999,8446,.25120889E-3,.2906E-4,0
STARLINK-32534,2024-225N,2026-06-15T01:01:03.792864,14.98333285,.00033873,70.0014,279.1486,263.3223,96.7551,0,U,62175,999,8445,.19065681E-3,.2183E-4,0
STARLINK-32516,2024-225P,2026-06-14T15:12:12.494880,14.98361265,.00033226,70.0021,280.1288,266.0538,94.0242,0,U,62176,999,8439,.50484853E-3,.5941E-4,0
STARLINK-32542,2024-225Q,2026-06-15T00:31:00.458112,14.98334505,.0003441,70.0018,279.0725,267.2389,92.8377,0,U,62177,999,8445,.16208168E-3,.1842E-4,0
STARLINK-32600,2024-225R,2026-06-15T00:51:38.555424,14.98336046,.00034245,70.0016,269.1170,269.2980,90.7787,0,U,62178,999,8470,.24383233E-3,.2818E-4,0
STARLINK-32584,2024-225S,2026-06-15T00:18:58.942944,14.98334959,.0002876,70.0018,278.9818,270.2113,89.8716,0,U,62179,999,8445,.20024324E-3,.2297E-4,0
STARLINK-32587,2024-225T,2026-06-14T16:00:16.496640,14.98334567,.00035055,70.0017,279.7579,268.9414,91.1343,0,U,62180,999,8440,.20054704E-3,.2301E-4,0
STARLINK-32602,2024-225U,2026-06-15T06:52:06.993120,14.98351214,.00020038,70.0021,268.3880,275.1413,84.9517,0,U,62181,999,8474,.40565733E-3,.4753E-4,0
STARLINK-32565,2024-225V,2026-06-15T07:37:35.240736,14.98334585,.00030841,70.0018,278.1067,268.1203,91.9603,0,U,62182,999,8450,.26228767E-3,.3038E-4,0
STARLINK-32589,2024-225W,2026-06-15T07:37:23.083392,14.98334786,.00033126,70.0022,278.5033,268.3709,91.7070,0,U,62183,999,8449,.19766652E-3,.2267E-4,0
STARLINK-32581,2024-225X,2026-06-15T00:03:33.175584,14.98332487,.00032613,70.0019,269.0029,268.1787,91.8998,0,U,62184,999,8470,.93862265E-4,.1027E-4,0
STARLINK-32686,2024-229A,2026-06-15T01:15:01.814976,15.27589859,.00008593,43.0004,77.2465,264.7528,95.3225,0,U,62192,999,8549,.54462529E-3,.14759E-3,0
STARLINK-32688,2024-229B,2026-06-15T01:40:14.183904,15.27588467,.00005915,43.0006,80.8316,246.1270,113.9519,0,U,62193,999,8545,.64136007E-3,.17433E-3,0
STARLINK-32684,2024-229C,2026-06-15T01:03:13.732416,15.27625257,.00008499,43.0085,80.6402,258.8277,101.2480,0,U,62194,999,8663,.9699138E-3,.2656E-3,0
STARLINK-32672,2024-229D,2026-06-15T01:23:35.092320,15.27594982,.00005431,43.0042,80.7445,225.8508,134.2299,0,U,62195,999,8545,.91906604E-3,.25126E-3,0
STARLINK-32682,2024-229E,2026-06-14T23:31:20.129376,15.27592285,.00007297,43.0056,48.6007,274.2005,85.8764,0,U,62196,999,8581,.67616726E-3,.18398E-3,0
STARLINK-32663,2024-229F,2026-06-14T12:04:17.250816,15.27610537,.00005303,43.0038,84.3111,258.4226,101.6567,0,U,62197,999,8536,.62400922E-3,.16965E-3,0
STARLINK-32640,2024-229G,2026-06-14T11:05:06.462240,15.27565740,.00003958,43.0000,84.0065,140.7458,219.3422,0,U,62198,999,8536,.59468333E-3,.16131E-3,0
STARLINK-32653,2024-229H,2026-06-14T11:36:04.668768,15.27582290,.00007696,42.9995,77.1992,103.0019,257.0918,0,U,62199,999,8544,.64916241E-3,.17645E-3,0
STARLINK-32647,2024-229J,2026-06-15T01:43:56.104032,15.27591156,.00006655,43.0074,80.8480,272.4199,87.6577,0,U,62200,999,8545,.70250572E-3,.19126E-3,0
STARLINK-32667,2024-229K,2026-06-14T01:19:46.790688,15.27599277,.00021891,42.9989,86.1144,276.2334,83.8268,0,U,62201,999,8530,.986108E-3,.2699E-3,0
STARLINK-32655,2024-229L,2026-06-13T12:20:49.444224,15.27595793,.00021697,43.0067,89.7912,269.8474,90.2130,0,U,62202,999,8521,.61632612E-3,.16745E-3,0
STARLINK-32665,2024-229M,2026-06-15T01:34:40.105344,15.27605645,.00012128,43.0029,80.8002,116.5516,243.5461,0,U,62203,999,8545,.80579361E-3,.21995E-3,0
STARLINK-32664,2024-229N,2026-06-15T06:00:02.000160,15.59320796,.00255231,42.9923,64.7413,222.3468,164.8955,0,U,62204,999,592,.31143931E-2,.263835E-2,0
STARLINK-32660,2024-229P,2026-06-14T10:51:12.358368,15.27590769,.00012756,43.0038,70.0605,273.0487,87.0219,0,U,62205,999,8552,.80292616E-3,.21905E-3,0
STARLINK-32448,2024-229Q,2026-06-14T01:25:20.231616,15.27605361,.00006666,43.0054,86.1473,238.8799,121.1988,0,U,62206,999,8530,.6623338E-3,.18022E-3,0
