STARLINK-32538          
1 62170U 24225H   26166.03823469  .00006205  00000+0  52754-3 0  9995
2 62170  70.0019 279.1346 0003170 269.7173  90.3623 14.98316987 84453
STARLINK-32257          
1 62171U 24225J   26165.65851663  .00002713  00000+0  23507-3 0  9994
2 62171  70.0015 279.8182 0003229 270.2004  89.8785 14.98334490 84406
STARLINK-32407          
1 62172U 24225K   26165.60845161  .00002825  00000+0  24439-3 0  9995
2 62172  70.0018 280.0384 0003242 269.3699  90.7089 14.98335331 84393
STARLINK-32575          
1 62173U 24225L   26166.31957156  .00000981  00000+0  90012-4 0  9995
2 62173  70.0017 268.1029 0003880 270.6324  89.4391 14.98332493 84751
STARLINK-32552          
1 62174U 24225M   26166.06324907  .00002906  00000+0  25121-3 0  9997
2 62174  70.0013 278.8231 0003394 267.5955  92.4816 14.98336362 84469
STARLINK-32534          
1 62175U 24225N   26166.04240501  .00002183  00000+0  19066-3 0  9991
2 62175  70.0014 279.1486 0003387 263.3223  96.7551 14.98333285 84454
STARLINK-32516          
1 62176U 24225P   26165.63347795  .00005941  00000+0  50485-3 0  9994
2 62176  70.0021 280.1288 0003322 266.0538  94.0242 14.98361265 84393
STARLINK-32542          
1 62177U 24225Q   26166.02153308  .00001842  00000+0  16208-3 0  9995
2 62177  70.0018 279.0725 0003441 267.2389  92.8377 14.98334505 84451
STARLINK-32600          
1 62178U 24225R   26166.03586291  .00002818  00000+0  24383-3 0  9995
2 62178  70.0016 269.1170 0003424 269.2980  90.7787 14.98336046 84706
STARLINK-32584          
1 62179U 24225S   26166.01318221  .00002297  00000+0  20024-3 0  9999
2 62179  70.0018 278.9818 0002876 270.2113  89.8716 14.98334959 84450
STARLINK-32587          
1 62180U 24225T   26165.66685760  .00002301  00000+0  20055-3 0  9996
2 62180  70.0017 279.7579 0003505 268.9414  91.1343 14.98334567 84404
STARLINK-32602          
1 62181U 24225U   26166.28619205  .00004753  00000+0  40566-3 0  9999
2 62181  70.0021 268.3880 0002003 275.1413  84.9517 14.98351214 84748
STARLINK-32565          
1 62182U 24225V   26166.31776899  .00003038  00000+0  26229-3 0  9992
2 62182  70.0018 278.1067 0003084 268.1203  91.9603 14.98334585 84500
STARLINK-32589          
1 62183U 24225W   26166.31762828  .00002267  00000+0  19767-3 0  9992
2 62183  70.0022 278.5033 0003312 268.3709  91.7070 14.98334786 84497
STARLINK-32581          
1 62184U 24225X   26166.00246731  .00001027  00000+0  93862-4 0  9991
2 62184  70.0019 269.0029 0003261 268.1787  91.8998 14.98332487 84701
STARLINK-32686          
1 62192U 24229A   26166.05210434  .00014759  00000+0  54463-3 0  9999
2 62192  43.0004  77.2465 0000859 264.7528  95.3225 15.27589859 85491
STARLINK-32688          
1 62193U 24229B   26166.06960861  .00017433  00000+0  64136-3 0  9997
2 62193  43.0006  80.8316 0000591 246.1270 113.9519 15.27588467 85453
STARLINK-32684          
1 62194U 24229C   26166.04390894  .00026560  00000+0  96991-3 0  9994
2 62194  43.0085  80.6402 0000849 258.8277 101.2480 15.27625257 86635
STARLINK-32672          
1 62195U 24229D   26166.05804505  .00025126  00000+0  91907-3 0  9994
2 62195  43.0042  80.7445 0000543 225.8508 134.2299 15.27594982 85452
STARLINK-32682          
1 62196U 24229E   26165.98009409  .00018398  00000+0  67617-3 0  9990
2 62196  43.0056  48.6007 0000729 274.2005  85.8764 15.27592285 85813
STARLINK-32663          
1 62197U 24229F   26165.50297744  .00016965  00000+0  62401-3 0  9994
2 62197  43.0038  84.3111 0000530 258.4226 101.6567 15.27610537 85365
STARLINK-32640          
1 62198U 24229G   26165.46188035  .00016131  00000+0  59468-3 0  9996
2 62198  43.0000  84.0065 0000395 140.7458 219.3422 15.27565740 85361
STARLINK-32653          
1 62199U 24229H   26165.48338737  .00017645  00000+0  64916-3 0  9990
2 62199  42.9995  77.1992 0000769 103.0019 257.0918 15.27582290 85442
STARLINK-32647          
1 62200U 24229J   26166.07217713  .00019126  00000+0  70251-3 0  9994
2 62200  43.0074  80.8480 0000665 272.4199  87.6577 15.27591156 85453
STARLINK-32667          
1 62201U 24229K   26165.05540267  .00026990  00000+0  98611-3 0  9992
2 62201  42.9989  86.1144 0002189 276.2334  83.8268 15.27599277 85300
STARLINK-32655          
1 62202U 24229L   26164.51446116  .00016745  00000+0  61633-3 0  9992
2 62202  43.0067  89.7912 0002169 269.8474  90.2130 15.27595793 85212
STARLINK-32665          
1 62203U 24229M   26166.06574196  .00021995  00000+0  80579-3 0  9998
2 62203  43.0029  80.8002 0001212 116.5516 243.5461 15.27605645 85450
STARLINK-32664          
1 62204U 24229N   26166.25002315  .00263835  00000+0  31144-2 0  9993
2 62204  42.9923  64.7413 0025523 222.3468 164.8955 15.59320796  5925
STARLINK-32660          
1 62205U 24229P   26165.45222637  .00021905  00000+0  80293-3 0  9996
2 62205  43.0038  70.0605 0001275 273.0487  87.0219 15.27590769 85527
STARLINK-32448          
1 62206U 24229Q   26165.05926194  .00018022  00000+0  66233-3 0  9996
2 62206  43.0054  86.1473 0000666 238.8799 121.1988 15.27605361 85309
